<?xml version="1.0" encoding="UTF-8"?>
<ndm xmlns:xsi="http://www.w3.org/2001/XMLSchema-instance" xsi:noNamespaceSchemaLocation="https://sanaregistry.org/r/ndmxml_unqualified/ndmxml-2.0.0-master-2.0.xsd">
<omm id="CCSDS_OMM_VERS" version="2.0">
<header><CREATION_DATE/><ORIGINATOR/></header><body><segment><metadata><OBJECT_NAME>KUIPER-00044</OBJECT_NAME><OBJECT_ID>2025-134F</OBJECT_ID><CENTER_NAME>EARTH</CENTER_NAME><REF_FRAME>TEME</REF_FRAME><TIME_SYSTEM>UTC</TIME_SYSTEM><MEAN_ELEMENT_THEORY>SGP4</MEAN_ELEMENT_THEORY></metadata><data><meanElements><EPOCH>2025-12-13T23:41:27.955968</EPOCH><MEAN_MOTION>14.79989232</MEAN_MOTION><ECCENTRICITY>.00117711</ECCENTRICITY><INCLINATION>51.8990</INCLINATION><RA_OF_ASC_NODE>265.5700</RA_OF_ASC_NODE><ARG_OF_PERICENTER>350.6684</ARG_OF_PERICENTER><MEAN_ANOMALY>9.4058</MEAN_ANOMALY></meanElements><tleParameters><EPHEMERIS_TYPE>0</EPHEMERIS_TYPE><CLASSIFICATION_TYPE>U</CLASSIFICATION_TYPE><NORAD_CAT_ID>64505</NORAD_CAT_ID><ELEMENT_SET_NO>999</ELEMENT_SET_NO><REV_AT_EPOCH>2719</REV_AT_EPOCH><BSTAR>.94588306E-3</BSTAR><MEAN_MOTION_DOT>.7012E-4</MEAN_MOTION_DOT><MEAN_MOTION_DDOT>0</MEAN_MOTION_DDOT></tleParameters></data></segment></body></omm>
<omm id="CCSDS_OMM_VERS" version="2.0">
<header><CREATION_DATE/><ORIGINATOR/></header><body><segment><metadata><OBJECT_NAME>KUIPER-00046</OBJECT_NAME><OBJECT_ID>2025-134G</OBJECT_ID><CENTER_NAME>EARTH</CENTER_NAME><REF_FRAME>TEME</REF_FRAME><TIME_SYSTEM>UTC</TIME_SYSTEM><MEAN_ELEMENT_THEORY>SGP4</MEAN_ELEMENT_THEORY></metadata><data><meanElements><EPOCH>2025-12-13T23:34:39.645984</EPOCH><MEAN_MOTION>14.80632867</MEAN_MOTION><ECCENTRICITY>.00125561</ECCENTRICITY><INCLINATION>51.8986</INCLINATION><RA_OF_ASC_NODE>261.9639</RA_OF_ASC_NODE><ARG_OF_PERICENTER>2.1190</ARG_OF_PERICENTER><MEAN_ANOMALY>357.9824</MEAN_ANOMALY></meanElements><tleParameters><EPHEMERIS_TYPE>0</EPHEMERIS_TYPE><CLASSIFICATION_TYPE>U</CLASSIFICATION_TYPE><NORAD_CAT_ID>64506</NORAD_CAT_ID><ELEMENT_SET_NO>999</ELEMENT_SET_NO><REV_AT_EPOCH>2724</REV_AT_EPOCH><BSTAR>.90718207E-3</BSTAR><MEAN_MOTION_DOT>.6823E-4</MEAN_MOTION_DOT><MEAN_MOTION_DDOT>0</MEAN_MOTION_DDOT></tleParameters></data></segment></body></omm>
<omm id="CCSDS_OMM_VERS" version="2.0">
<header><CREATION_DATE/><ORIGINATOR/></header><body><segment><metadata><OBJECT_NAME>KUIPER-00047</OBJECT_NAME><OBJECT_ID>2025-134H</OBJECT_ID><CENTER_NAME>EARTH</CENTER_NAME><REF_FRAME>TEME</REF_FRAME><TIME_SYSTEM>UTC</TIME_SYSTEM><MEAN_ELEMENT_THEORY>SGP4</MEAN_ELEMENT_THEORY></metadata><data><meanElements><EPOCH>2025-12-13T23:07:05.361600</EPOCH><MEAN_MOTION>14.82993121</MEAN_MOTION><ECCENTRICITY>.00087306</ECCENTRICITY><INCLINATION>51.8978</INCLINATION><RA_OF_ASC_NODE>233.7074</RA_OF_ASC_NODE><ARG_OF_PERICENTER>18.9710</ARG_OF_PERICENTER><MEAN_ANOMALY>341.1577</MEAN_ANOMALY></meanElements><tleParameters><EPHEMERIS_TYPE>0</EPHEMERIS_TYPE><CLASSIFICATION_TYPE>U</CLASSIFICATION_TYPE><NORAD_CAT_ID>64507</NORAD_CAT_ID><ELEMENT_SET_NO>999</ELEMENT_SET_NO><REV_AT_EPOCH>2763</REV_AT_EPOCH><BSTAR>.55331138E-3</BSTAR><MEAN_MOTION_DOT>.4315E-4</MEAN_MOTION_DOT><MEAN_MOTION_DDOT>0</MEAN_MOTION_DDOT></tleParameters></data></segment></body></omm>
<omm id="CCSDS_OMM_VERS" version="2.0">
<header><CREATION_DATE/><ORIGINATOR/></header><body><segment><metadata><OBJECT_NAME>KUIPER-00048</OBJECT_NAME><OBJECT_ID>2025-134J</OBJECT_ID><CENTER_NAME>EARTH</CENTER_NAME><REF_FRAME>TEME</REF_FRAME><TIME_SYSTEM>UTC</TIME_SYSTEM><MEAN_ELEMENT_THEORY>SGP4</MEAN_ELEMENT_THEORY></metadata><data><meanElements><EPOCH>2025-12-13T21:16:04.821024</EPOCH><MEAN_MOTION>14.79899714</MEAN_MOTION><ECCENTRICITY>.00036636</ECCENTRICITY><INCLINATION>51.8986</INCLINATION><RA_OF_ASC_NODE>235.0073</RA_OF_ASC_NODE><ARG_OF_PERICENTER>130.4428</ARG_OF_PERICENTER><MEAN_ANOMALY>229.6854</MEAN_ANOMALY></meanElements><tleParameters><EPHEMERIS_TYPE>0</EPHEMERIS_TYPE><CLASSIFICATION_TYPE>U</CLASSIFICATION_TYPE><NORAD_CAT_ID>64508</NORAD_CAT_ID><ELEMENT_SET_NO>999</ELEMENT_SET_NO><REV_AT_EPOCH>2761</REV_AT_EPOCH><BSTAR>-.15271246E-2</BSTAR><MEAN_MOTION_DOT>-.11835E-3</MEAN_MOTION_DOT><MEAN_MOTION_DDOT>0</MEAN_MOTION_DDOT></tleParameters></data></segment></body></omm>
<omm id="CCSDS_OMM_VERS" version="2.0">
<header><CREATION_DATE/><ORIGINATOR/></header><body><segment><metadata><OBJECT_NAME>KUIPER-00049</OBJECT_NAME><OBJECT_ID>2025-134K</OBJECT_ID><CENTER_NAME>EARTH</CENTER_NAME><REF_FRAME>TEME</REF_FRAME><TIME_SYSTEM>UTC</TIME_SYSTEM><MEAN_ELEMENT_THEORY>SGP4</MEAN_ELEMENT_THEORY></metadata><data><meanElements><EPOCH>2025-12-13T22:31:32.812608</EPOCH><MEAN_MOTION>14.79855091</MEAN_MOTION><ECCENTRICITY>.00036824</ECCENTRICITY><INCLINATION>51.9003</INCLINATION><RA_OF_ASC_NODE>248.2463</RA_OF_ASC_NODE><ARG_OF_PERICENTER>9.0307</ARG_OF_PERICENTER><MEAN_ANOMALY>351.0721</MEAN_ANOMALY></meanElements><tleParameters><EPHEMERIS_TYPE>0</EPHEMERIS_TYPE><CLASSIFICATION_TYPE>U</CLASSIFICATION_TYPE><NORAD_CAT_ID>64509</NORAD_CAT_ID><ELEMENT_SET_NO>999</ELEMENT_SET_NO><REV_AT_EPOCH>2743</REV_AT_EPOCH><BSTAR>.63317323E-3</BSTAR><MEAN_MOTION_DOT>.46E-4</MEAN_MOTION_DOT><MEAN_MOTION_DDOT>0</MEAN_MOTION_DDOT></tleParameters></data></segment></body></omm>
<omm id="CCSDS_OMM_VERS" version="2.0">
<header><CREATION_DATE/><ORIGINATOR/></header><body><segment><metadata><OBJECT_NAME>KUIPER-00050</OBJECT_NAME><OBJECT_ID>2025-134L</OBJECT_ID><CENTER_NAME>EARTH</CENTER_NAME><REF_FRAME>TEME</REF_FRAME><TIME_SYSTEM>UTC</TIME_SYSTEM><MEAN_ELEMENT_THEORY>SGP4</MEAN_ELEMENT_THEORY></metadata><data><meanElements><EPOCH>2025-12-13T23:30:52.621344</EPOCH><MEAN_MOTION>14.96690175</MEAN_MOTION><ECCENTRICITY>.00048533</ECCENTRICITY><INCLINATION>51.8902</INCLINATION><RA_OF_ASC_NODE>241.3837</RA_OF_ASC_NODE><ARG_OF_PERICENTER>41.6815</ARG_OF_PERICENTER><MEAN_ANOMALY>318.4524</MEAN_ANOMALY></meanElements><tleParameters><EPHEMERIS_TYPE>0</EPHEMERIS_TYPE><CLASSIFICATION_TYPE>U</CLASSIFICATION_TYPE><NORAD_CAT_ID>64510</NORAD_CAT_ID><ELEMENT_SET_NO>999</ELEMENT_SET_NO><REV_AT_EPOCH>2753</REV_AT_EPOCH><BSTAR>.68879916E-3</BSTAR><MEAN_MOTION_DOT>.77E-4</MEAN_MOTION_DOT><MEAN_MOTION_DDOT>0</MEAN_MOTION_DDOT></tleParameters></data></segment></body></omm>
<omm id="CCSDS_OMM_VERS" version="2.0">
<header><CREATION_DATE/><ORIGINATOR/></header><body><segment><metadata><OBJECT_NAME>KUIPER-00051</OBJECT_NAME><OBJECT_ID>2025-134M</OBJECT_ID><CENTER_NAME>EARTH</CENTER_NAME><REF_FRAME>TEME</REF_FRAME><TIME_SYSTEM>UTC</TIME_SYSTEM><MEAN_ELEMENT_THEORY>SGP4</MEAN_ELEMENT_THEORY></metadata><data><meanElements><EPOCH>2025-12-13T22:35:22.268544</EPOCH><MEAN_MOTION>14.79943526</MEAN_MOTION><ECCENTRICITY>.00026672</ECCENTRICITY><INCLINATION>51.9009</INCLINATION><RA_OF_ASC_NODE>245.7995</RA_OF_ASC_NODE><ARG_OF_PERICENTER>23.7508</ARG_OF_PERICENTER><MEAN_ANOMALY>336.3577</MEAN_ANOMALY></meanElements><tleParameters><EPHEMERIS_TYPE>0</EPHEMERIS_TYPE><CLASSIFICATION_TYPE>U</CLASSIFICATION_TYPE><NORAD_CAT_ID>64511</NORAD_CAT_ID><ELEMENT_SET_NO>999</ELEMENT_SET_NO><REV_AT_EPOCH>2746</REV_AT_EPOCH><BSTAR>.84233365E-3</BSTAR><MEAN_MOTION_DOT>.6208E-4</MEAN_MOTION_DOT><MEAN_MOTION_DDOT>0</MEAN_MOTION_DDOT></tleParameters></data></segment></body></omm>
<omm id="CCSDS_OMM_VERS" version="2.0">
<header><CREATION_DATE/><ORIGINATOR/></header><body><segment><metadata><OBJECT_NAME>KUIPER-00052</OBJECT_NAME><OBJECT_ID>2025-134N</OBJECT_ID><CENTER_NAME>EARTH</CENTER_NAME><REF_FRAME>TEME</REF_FRAME><TIME_SYSTEM>UTC</TIME_SYSTEM><MEAN_ELEMENT_THEORY>SGP4</MEAN_ELEMENT_THEORY></metadata><data><meanElements><EPOCH>2025-12-13T22:00:00.999936</EPOCH><MEAN_MOTION>15.72078516</MEAN_MOTION><ECCENTRICITY>.00035893</ECCENTRICITY><INCLINATION>51.8608</INCLINATION><RA_OF_ASC_NODE>188.7762</RA_OF_ASC_NODE><ARG_OF_PERICENTER>105.9138</ARG_OF_PERICENTER><MEAN_ANOMALY>290.6652</MEAN_ANOMALY></meanElements><tleParameters><EPHEMERIS_TYPE>0</EPHEMERIS_TYPE><CLASSIFICATION_TYPE>U</CLASSIFICATION_TYPE><NORAD_CAT_ID>64512</NORAD_CAT_ID><ELEMENT_SET_NO>999</ELEMENT_SET_NO><REV_AT_EPOCH>506</REV_AT_EPOCH><BSTAR>.29072161E-3</BSTAR><MEAN_MOTION_DOT>.38529E-3</MEAN_MOTION_DOT><MEAN_MOTION_DDOT>0</MEAN_MOTION_DDOT></tleParameters></data></segment></body></omm>

</ndm>
