KUIPER-00044            
1 64505U 25134F   25347.98712912  .00007012  00000+0  94588-3 0  9991
2 64505  51.8990 265.5700 0011771 350.6684   9.4058 14.79989232 27197
KUIPER-00046            
1 64506U 25134G   25347.98240331  .00006823  00000+0  90718-3 0  9993
2 64506  51.8986 261.9639 0012556   2.1190 357.9824 14.80632867 27246
KUIPER-00047            
1 64507U 25134H   25347.96325650  .00004315  00000+0  55331-3 0  9996
2 64507  51.8978 233.7074 0008730  18.9710 341.1577 14.82993121 27638
KUIPER-00048            
1 64508U 25134J   25347.88616691 -.00011835  00000+0 -15271-2 0  9991
2 64508  51.8986 235.0073 0003663 130.4428 229.6854 14.79899714 27613
KUIPER-00049            
1 64509U 25134K   25347.93857422  .00004600  00000+0  63317-3 0  9992
2 64509  51.9003 248.2463 0003682   9.0307 351.0721 14.79855091 27435
KUIPER-00050            
1 64510U 25134L   25347.97977571  .00007700  00000+0  68880-3 0  9990
2 64510  51.8902 241.3837 0004853  41.6815 318.4524 14.96690175 27538
KUIPER-00051            
1 64511U 25134M   25347.94122996  .00006208  00000+0  84233-3 0  9993
2 64511  51.9009 245.7995 0002667  23.7508 336.3577 14.79943526 27463
KUIPER-00052            
1 64512U 25134N   25347.91667824  .00038529  00000+0  29072-3 0  9996
2 64512  51.8608 188.7762 0003589 105.9138 290.6652 15.72078516  5062
